[{"OBJECT_NAME":"STARLINK-6114","OBJECT_ID":"2023-046Z","EPOCH":"2026-03-09T06:38:39.291360","MEAN_MOTION":15.02532897,"ECCENTRICITY":0.00015396,"INCLINATION":43.0033,"RA_OF_ASC_NODE":160.87,"ARG_OF_PERICENTER":269.1898,"MEAN_ANOMALY":90.8768,"EPHEMERIS_TYPE":0,"CLASSIFICATION_TYPE":"U","NORAD_CAT_ID":56116,"ELEMENT_SET_NO":999,"REV_AT_EPOCH":16200,"BSTAR":4.675226e-5,"MEAN_MOTION_DOT":4.28e-6,"MEAN_MOTION_DDOT":0},{"OBJECT_NAME":"DELTA 1 R\/B","OBJECT_ID":"1972-058B","EPOCH":"2026-03-09T22:14:45.150144","MEAN_MOTION":14.86907844,"ECCENTRICITY":0.00837103,"INCLINATION":98.4819,"RA_OF_ASC_NODE":287.4026,"ARG_OF_PERICENTER":251.5853,"MEAN_ANOMALY":107.6247,"EPHEMERIS_TYPE":0,"CLASSIFICATION_TYPE":"U","NORAD_CAT_ID":6127,"ELEMENT_SET_NO":999,"REV_AT_EPOCH":68503,"BSTAR":0.00031466372,"MEAN_MOTION_DOT":2.928e-5,"MEAN_MOTION_DDOT":0}]
